NORAD_CAT_ID,OBJECT_NAME,OBJECT_TYPE,EPOCH,MEAN_MOTION,ECCENTRICITY,INCLINATION,RA_OF_ASC_NODE,ARG_OF_PERICENTER,MEAN_ANOMALY,BSTAR,MEAN_MOTION_DOT,MEAN_MOTION_DDOT,TLE_LINE0,TLE_LINE1,TLE_LINE2,SEMIMAJOR_AXIS,PERIOD,APOGEE,PERIGEE,DECAYED
53150.0,STARLINK-4038,PAYLOAD,2024-03-26 09:44:54,15.088226,0.00013,53.2165,126.1781,94.6113,265.5028,-0.00027077,-4.592e-05,0.0,0 STARLINK-4038,1 53150U 22083U   24086.40619168 -.00004592  00000-0 -27077-3 0  9992,2 53150  53.2165 126.1781 0001300  94.6113 265.5028 15.08822600 93677,6917.934,95.439,540.698,538.899,0.0
53150.0,STARLINK-4038,PAYLOAD,2024-03-27 11:11:03,15.08845183,0.0001175,53.2176,121.4188,101.1395,258.9729,0.00029239,4.369e-05,0.0,0 STARLINK-4038,1 53150U 22083U   24087.46601846  .00004369  00000-0  29239-3 0  9995,2 53150  53.2176 121.4188 0001175 101.1395 258.9729 15.08845183 94467,6917.865,95.437,540.542,538.917,0.0
53150.0,STARLINK-4038,PAYLOAD,2024-03-28 11:01:51,15.08844828,0.0001157,53.2159,116.9567,94.6061,265.5063,0.00028333,4.225e-05,0.0,0 STARLINK-4038,1 53150U 22083U   24088.45962261  .00004225  00000-0  28333-3 0  9991,2 53150  53.2159 116.9567 0001157  94.6061 265.5063 15.08844828 94611,6917.866,95.437,540.531,538.93,0.0
53150.0,STARLINK-4038,PAYLOAD,2024-03-28 18:58:47,15.08845324,0.00012,53.2185,115.4674,75.428,284.6845,8.3362e-05,1.039e-05,0.0,0 STARLINK-4038,1 53150U 22083U   24088.79082468  .00001039  00000-0  83362-4 0  9994,2 53150  53.2185 115.4674 0001200  75.4280 284.6845 15.08845324 94030,6917.864,95.437,540.559,538.899,0.0
53150.0,STARLINK-4038,PAYLOAD,2024-03-29 10:52:38,15.08851556,0.0001259,53.2166,112.4962,87.7569,272.3567,-4.3648e-05,-9.83e-06,0.0,0 STARLINK-4038,1 53150U 22083U   24089.45322102 -.00000983  00000-0 -43648-4 0  9992,2 53150  53.2166 112.4962 0001259  87.7569 272.3567 15.08851556 94136,6917.845,95.437,540.581,538.839,0.0
53150.0,STARLINK-4038,PAYLOAD,2024-03-29 18:49:33,15.0885197,0.0001266,53.2166,111.0094,85.4142,274.6995,-4.8646e-05,-1.062e-05,0.0,0 STARLINK-4038,1 53150U 22083U   24089.78441848 -.00001062  00000-0 -48646-4 0  9999,2 53150  53.2166 111.0094 0001266  85.4142 274.6995 15.08851970 94812,6917.844,95.437,540.585,538.833,0.0
53150.0,STARLINK-4038,PAYLOAD,2024-03-30 10:43:24,15.08854258,0.0001314,53.2165,108.0337,90.3923,269.722,2.083e-05,4.4e-07,0.0,0 STARLINK-4038,1 53150U 22083U   24090.44681262  .00000044  00000-0  20830-4 0  9992,2 53150  53.2165 108.0337 0001314  90.3923 269.7220 15.08854258 94282,6917.837,95.437,540.611,538.793,0.0
53150.0,STARLINK-4038,PAYLOAD,2024-03-30 18:40:20,15.08849143,0.0001299,53.2167,106.5462,92.0805,268.0336,-1.6049e-05,-5.43e-06,0.0,0 STARLINK-4038,1 53150U 22083U   24090.77801412 -.00000543  00000-0 -16049-4 0  9992,2 53150  53.2167 106.5462 0001299  92.0805 268.0336 15.08849143 94339,6917.852,95.437,540.616,538.819,0.0
53150.0,STARLINK-4038,PAYLOAD,2024-03-31 04:12:39,15.08838112,0.0001437,53.2153,104.7636,86.3832,273.7324,5.1269e-05,5.28e-06,0.0,0 STARLINK-4038,1 53150U 22083U   24091.17546096  .00000528  00000-0  51269-4 0  9995,2 53150  53.2153 104.7636 0001437  86.3832 273.7324 15.08838112 95028,6917.886,95.438,540.745,538.757,0.0
53150.0,STARLINK-4038,PAYLOAD,2024-03-31 07:23:25,15.08839687,0.0001324,53.2159,104.1678,91.7165,268.3979,0.00011115,1.481e-05,0.0,0 STARLINK-4038,1 53150U 22083U   24091.30793801  .00001481  00000-0  11115-3 0  9992,2 53150  53.2159 104.1678 0001324  91.7165 268.3979 15.08839687 94414,6917.881,95.438,540.662,538.83,0.0
53150.0,STARLINK-4038,PAYLOAD,2024-04-01 04:03:27,15.08832913,0.0001443,53.2165,100.3029,94.3464,265.7693,-4.0353e-05,-9.3e-06,0.0,0 STARLINK-4038,1 53150U 22083U   24092.16906763 -.00000930  00000-0 -40353-4 0  9997,2 53150  53.2165 100.3029 0001443  94.3464 265.7693 15.08832913 95175,6917.902,95.438,540.765,538.769,0.0
53150.0,STARLINK-4038,PAYLOAD,2024-04-01 10:24:59,15.08835411,0.0001466,53.2159,99.1131,89.2328,270.8832,-2.1738e-05,-6.34e-06,0.0,0 STARLINK-4038,1 53150U 22083U   24092.43402675 -.00000634  00000-0 -21738-4 0  9997,2 53150  53.2159  99.1131 0001466  89.2328 270.8832 15.08835411 94586,6917.894,95.438,540.774,538.745,0.0
53150.0,STARLINK-4038,PAYLOAD,2024-04-02 03:54:13,15.08844342,0.0001462,53.2171,95.8435,87.815,272.301,0.0001105,1.471e-05,0.0,0 STARLINK-4038,1 53150U 22083U   24093.16265780  .00001471  00000-0  11050-3 0  9995,2 53150  53.2171  95.8435 0001462  87.8150 272.3010 15.08844342 95324,6917.867,95.437,540.744,538.721,0.0
53150.0,STARLINK-4038,PAYLOAD,2024-04-02 07:04:59,15.08845903,0.0001444,53.2163,95.2492,88.3059,271.8099,0.0001293,1.771e-05,0.0,0 STARLINK-4038,1 53150U 22083U   24093.29513624  .00001771  00000-0  12930-3 0  9993,2 53150  53.2163  95.2492 0001444  88.3059 271.8099 15.08845903 94713,6917.862,95.437,540.726,538.728,0.0
53150.0,STARLINK-4038,PAYLOAD,2024-04-02 16:37:19,15.08839875,0.0001429,53.2162,93.465,86.894,273.2216,7.8351e-06,-1.63e-06,0.0,0 STARLINK-4038,1 53150U 22083U   24093.69258191 -.00000163  00000-0  78351-5 0  9998,2 53150  53.2162  93.4650 0001429  86.8940 273.2216 15.08839875 95408,6917.881,95.438,540.734,538.757,0.0
53150.0,STARLINK-4038,PAYLOAD,2024-04-02 22:58:52,15.08832452,0.0001651,53.2183,92.279,94.6716,265.4465,6.7429e-05,7.85e-06,0.0,0 STARLINK-4038,1 53150U 22083U   24093.95754827  .00000785  00000-0  67429-4 0  9996,2 53150  53.2183  92.2790 0001651  94.6716 265.4465 15.08832452 94815,6917.903,95.438,540.911,538.626,0.0
53150.0,STARLINK-4038,PAYLOAD,2024-04-03 08:31:12,15.08821108,0.0001332,53.2175,90.491,87.583,272.5315,-4.0516e-05,-9.32e-06,0.0,0 STARLINK-4038,1 53150U 22083U   24094.35500292 -.00000932  00000-0 -40516-4 0  9990,2 53150  53.2175  90.4910 0001332  87.5830 272.5315 15.08821108 95500,6917.938,95.439,540.725,538.882,0.0
53150.0,STARLINK-4038,PAYLOAD,2024-04-03 16:28:07,15.08827479,0.0001349,53.2177,89.0044,89.5853,270.5293,-1.3118e-05,-4.97e-06,0.0,0 STARLINK-4038,1 53150U 22083U   24094.68620105 -.00000497  00000-0 -13118-4 0  9996,2 53150  53.2177  89.0044 0001349  89.5853 270.5293 15.08827479 95554,6917.919,95.438,540.717,538.85,0.0
53150.0,STARLINK-4038,PAYLOAD,2024-04-04 05:11:12,15.08839552,0.000162,53.2195,86.6276,104.4826,255.6346,-1.5723e-06,-3.13e-06,0.0,0 STARLINK-4038,1 53150U 22083U   24095.21611569 -.00000313  00000-0 -15723-5 0  9992,2 53150  53.2195  86.6276 0001620 104.4826 255.6346 15.08839552 95630,6917.882,95.438,540.867,538.626,0.0
53150.0,STARLINK-4038,PAYLOAD,2024-04-04 09:57:21,15.08838897,0.0001373,53.2179,85.7332,89.8898,270.2251,-3.0431e-06,-3.36e-06,0.0,0 STARLINK-4038,1 53150U 22083U   24095.41483680 -.00000336  00000-0 -30431-5 0  9993,2 53150  53.2179  85.7332 0001373  89.8898 270.2251 15.08838897 95038,6917.884,95.438,540.699,538.799,0.0
53150.0,STARLINK-4038,PAYLOAD,2024-04-04 16:18:54,15.08845924,0.0001328,53.2177,84.5433,87.0716,273.0428,4.4371e-06,-2.17e-06,0.0,0 STARLINK-4038,1 53150U 22083U   24095.67979180 -.00000217  00000-0  44371-5 0  9991,2 53150  53.2177  84.5433 0001328  87.0716 273.0428 15.08845924 95074,6917.862,95.437,540.646,538.809,0.0
53150.0,STARLINK-4038,PAYLOAD,2024-04-05 08:12:45,15.08847437,0.0001205,53.2174,81.569,85.1227,274.9903,0.00034135,5.15e-05,0.0,0 STARLINK-4038,1 53150U 22083U   24096.34218904  .00005150  00000-0  34135-3 0  9991,2 53150  53.2174  81.5690 0001205  85.1227 274.9903 15.08847437 95803,6917.858,95.437,540.556,538.889,0.0
53150.0,STARLINK-4038,PAYLOAD,2024-04-05 16:09:41,15.08847496,0.0001212,53.2162,80.0826,85.3785,274.7346,0.00028764,4.294e-05,0.0,0 STARLINK-4038,1 53150U 22083U   24096.67339217  .00004294  00000-0  28764-3 0  9997,2 53150  53.2162  80.0826 0001212  85.3785 274.7346 15.08847496 95224,6917.857,95.437,540.561,538.884,0.0
53150.0,STARLINK-4038,PAYLOAD,2024-04-06 04:52:46,15.08844391,0.0001284,53.2162,77.7044,86.8076,273.3063,0.00012919,1.769e-05,0.0,0 STARLINK-4038,1 53150U 22083U   24097.20331315  .00001769  00000-0  12919-3 0  9997,2 53150  53.2162  77.7044 0001284  86.8076 273.3063 15.08844391 95937,6917.867,95.437,540.62,538.844,0.0
53150.0,STARLINK-4038,PAYLOAD,2024-04-06 06:28:09,15.08847918,0.0001371,53.2163,77.4075,86.3127,273.8022,0.00013795,1.909e-05,0.0,0 STARLINK-4038,1 53150U 22083U   24097.26955114  .00001909  00000-0  13795-3 0  9991,2 53150  53.2163  77.4075 0001371  86.3127 273.8022 15.08847918 95318,6917.856,95.437,540.67,538.773,0.0
53150.0,STARLINK-4038,PAYLOAD,2024-04-06 22:22:00,15.08849516,0.0001227,53.2165,74.433,87.471,272.6422,9.3561e-05,1.202e-05,0.0,0 STARLINK-4038,1 53150U 22083U   24097.93194656  .00001202  00000-0  93561-4 0  9997,2 53150  53.2165  74.4330 0001227  87.4710 272.6422 15.08849516 95419,6917.851,95.437,540.565,538.867,0.0
53150.0,STARLINK-4038,PAYLOAD,2024-04-07 07:54:18,15.08851752,0.0001413,53.2165,72.6487,94.3514,265.764,8.5231e-05,1.069e-05,0.0,0 STARLINK-4038,1 53150U 22083U   24098.32938386  .00001069  00000-0  85231-4 0  9993,2 53150  53.2165  72.6487 0001413  94.3514 265.7640 15.08851752 96105,6917.844,95.437,540.687,538.732,0.0
53150.0,STARLINK-4038,PAYLOAD,2024-04-07 22:12:47,15.08839573,0.0001353,53.2156,69.9717,94.0981,266.0166,2.94e-05,1.8e-06,0.0,0 STARLINK-4038,1 53150U 22083U   24098.92554909  .00000180  00000-0  29400-4 0  9993,2 53150  53.2156  69.9717 0001353  94.0981 266.0166 15.08839573 95561,6917.882,95.438,540.683,538.811,0.0
53150.0,STARLINK-4038,PAYLOAD,2024-04-08 04:34:20,15.08840837,0.0001494,53.2177,68.7812,101.161,258.955,2.4445e-06,-2.49e-06,0.0,0 STARLINK-4038,1 53150U 22083U   24099.19051023 -.00000249  00000-0  24445-5 0  9994,2 53150  53.2177  68.7812 0001494 101.1610 258.9550 15.08840837 96239,6917.878,95.438,540.776,538.709,0.0
53150.0,STARLINK-4038,PAYLOAD,2024-04-08 07:45:06,15.08838269,0.0001482,53.2175,68.1863,102.0677,258.0481,3.7267e-05,3.05e-06,0.0,0 STARLINK-4038,1 53150U 22083U   24099.32299052  .00000305  00000-0  37267-4 0  9992,2 53150  53.2175  68.1863 0001482 102.0677 258.0481 15.08838269 95629,6917.886,95.438,540.776,538.725,0.0
